[{"OBJECT_NAME":"STARLINK-4731","OBJECT_ID":"2022-107D","EPOCH":"2026-03-09T17:32:19.271904","MEAN_MOTION":15.08824986,"ECCENTRICITY":0.00011328,"INCLINATION":53.2166,"RA_OF_ASC_NODE":243.6835,"ARG_OF_PERICENTER":88.701,"MEAN_ANOMALY":271.4112,"EPHEMERIS_TYPE":0,"CLASSIFICATION_TYPE":"U","NORAD_CAT_ID":53703,"ELEMENT_SET_NO":999,"REV_AT_EPOCH":19486,"BSTAR":-1.7272682e-5,"MEAN_MOTION_DOT":-5.63e-6,"MEAN_MOTION_DDOT":0},{"OBJECT_NAME":"FENGYUN 1C DEB","OBJECT_ID":"1999-025AEH","EPOCH":"2026-03-09T22:48:21.206880","MEAN_MOTION":14.8573293,"ECCENTRICITY":0.01077809,"INCLINATION":98.8499,"RA_OF_ASC_NODE":243.2798,"ARG_OF_PERICENTER":197.684,"MEAN_ANOMALY":322.9923,"EPHEMERIS_TYPE":0,"CLASSIFICATION_TYPE":"U","NORAD_CAT_ID":30418,"ELEMENT_SET_NO":999,"REV_AT_EPOCH":1886,"BSTAR":0.0011748472,"MEAN_MOTION_DOT":0.00011272,"MEAN_MOTION_DDOT":0}]
